start=new Date('2022-07-20T00:00:00.000Z').valueOf();
sats=[{"OBJECT_TYPE":"PAYLOAD","REF_FRAME":"TEME","DECAY_DATE":null,"EPHEMERIS_TYPE":"0","TIME_SYSTEM":"UTC","SEMIMAJOR_AXIS":"6735.880","PERIOD":"91.696","COUNTRY_CODE":"US","NORAD_CAT_ID":"53079","BSTAR":"-0.00092053000000","RA_OF_ASC_NODE":"19.2961","MEAN_ELEMENT_THEORY":"SGP4","EPOCH":"2022-07-19T22:00:00.999936","PERIAPSIS":"356.750","MEAN_MOTION_DOT":"-0.00110799","RCS_SIZE":null,"TLE_LINE2":"2 53079  97.6563  19.2961 0001478  91.3459 224.0485 15.70403420  1306","CLASSIFICATION_TYPE":"U","MEAN_ANOMALY":"224.0485","CENTER_NAME":"EARTH","MEAN_MOTION":"15.70403420","GP_ID":"208473860","ELEMENT_SET_NO":"999","OBJECT_NAME":"STARLINK-4327","TLE_LINE1":"1 53079U 22077AN  22200.91667824 -.00110799  00000-0 -92053-3 0  9992","SITE":"AFWTR","OBJECT_ID":"2022-077AN","ARG_OF_PERICENTER":"91.3459","REV_AT_EPOCH":"130","INCLINATION":"97.6563","APOAPSIS":"358.741","ECCENTRICITY":"0.00014780","MEAN_MOTION_DDOT":"0.0000000000000","FILE":"3517796","LAUNCH_DATE":"2022-07-11"},{"PERIOD":"91.697","SEMIMAJOR_AXIS":"6735.944","NORAD_CAT_ID":"53080","COUNTRY_CODE":"US","TIME_SYSTEM":"UTC","EPHEMERIS_TYPE":"0","OBJECT_TYPE":"PAYLOAD","DECAY_DATE":null,"REF_FRAME":"TEME","MEAN_MOTION_DOT":"-0.00248936","RCS_SIZE":null,"PERIAPSIS":"357.012","BSTAR":"-0.00210560000000","RA_OF_ASC_NODE":"19.2953","EPOCH":"2022-07-19T22:00:00.999936","MEAN_ELEMENT_THEORY":"SGP4","ARG_OF_PERICENTER":"78.5792","TLE_LINE1":"1 53080U 22077AP  22200.91667824 -.00248936  00000-0 -21056-2 0  9993","OBJECT_ID":"2022-077AP","SITE":"AFWTR","APOAPSIS":"358.606","INCLINATION":"97.6585","REV_AT_EPOCH":"130","MEAN_MOTION":"15.70381058","GP_ID":"208474559","ELEMENT_SET_NO":"999","OBJECT_NAME":"STARLINK-4330","CENTER_NAME":"EARTH","MEAN_ANOMALY":"235.8524","CLASSIFICATION_TYPE":"U","TLE_LINE2":"2 53080  97.6585  19.2953 0001183  78.5792 235.8524 15.70381058  1309","FILE":"3517796","LAUNCH_DATE":"2022-07-11","MEAN_MOTION_DDOT":"0.0000000000000","ECCENTRICITY":"0.00011830"},{"LAUNCH_DATE":"2022-07-11","FILE":"3517796","MEAN_MOTION_DDOT":"0.0000000000000","ECCENTRICITY":"0.00010950","REV_AT_EPOCH":"130","INCLINATION":"97.6583","APOAPSIS":"358.901","TLE_LINE1":"1 53081U 22077AQ  22200.91667824 -.00038324  00000-0 -31689-3 0  9996","OBJECT_ID":"2022-077AQ","SITE":"AFWTR","ARG_OF_PERICENTER":"99.7780","OBJECT_NAME":"STARLINK-4326","MEAN_MOTION":"15.70257335","GP_ID":"208474337","ELEMENT_SET_NO":"999","TLE_LINE2":"2 53081  97.6583  19.2970 0001095  99.7780 217.0209 15.70257335  1303","CLASSIFICATION_TYPE":"U","CENTER_NAME":"EARTH","MEAN_ANOMALY":"217.0209","RCS_SIZE":null,"MEAN_MOTION_DOT":"-0.00038324","PERIAPSIS":"357.425","MEAN_ELEMENT_THEORY":"SGP4","EPOCH":"2022-07-19T22:00:00.999936","BSTAR":"-0.00031689000000","RA_OF_ASC_NODE":"19.2970","COUNTRY_CODE":"US","NORAD_CAT_ID":"53081","SEMIMAJOR_AXIS":"6736.298","PERIOD":"91.705","EPHEMERIS_TYPE":"0","TIME_SYSTEM":"UTC","REF_FRAME":"TEME","DECAY_DATE":null,"OBJECT_TYPE":"PAYLOAD"},{"ARG_OF_PERICENTER":"95.0625","TLE_LINE1":"1 53082U 22077AR  22200.91667824 -.00021389  00000-0 -17611-3 0  9999","OBJECT_ID":"2022-077AR","SITE":"AFWTR","INCLINATION":"97.6587","APOAPSIS":"359.065","REV_AT_EPOCH":"130","GP_ID":"208474448","MEAN_MOTION":"15.70244865","ELEMENT_SET_NO":"999","OBJECT_NAME":"STARLINK-4321","MEAN_ANOMALY":"221.1521","CENTER_NAME":"EARTH","CLASSIFICATION_TYPE":"U","TLE_LINE2":"2 53082  97.6587  19.2964 0001286  95.0625 221.1521 15.70244865  1307","FILE":"3517796","LAUNCH_DATE":"2022-07-11","MEAN_MOTION_DDOT":"0.0000000000000","ECCENTRICITY":"0.00012860","PERIOD":"91.705","SEMIMAJOR_AXIS":"6736.334","NORAD_CAT_ID":"53082","COUNTRY_CODE":"US","TIME_SYSTEM":"UTC","EPHEMERIS_TYPE":"0","OBJECT_TYPE":"PAYLOAD","DECAY_DATE":null,"REF_FRAME":"TEME","MEAN_MOTION_DOT":"-0.00021389","RCS_SIZE":null,"PERIAPSIS":"357.332","BSTAR":"-0.00017611000000","RA_OF_ASC_NODE":"19.2964","EPOCH":"2022-07-19T22:00:00.999936","MEAN_ELEMENT_THEORY":"SGP4"},{"TLE_LINE1":"1 53083U 22077AS  22200.91667824  .00000809  00000-0  77658-5 0  9991","SITE":"AFWTR","OBJECT_ID":"2022-077AS","ARG_OF_PERICENTER":"62.9128","REV_AT_EPOCH":"130","INCLINATION":"97.6555","APOAPSIS":"359.206","TLE_LINE2":"2 53083  97.6555  19.3070 0001632  62.9128 273.1999 15.70276889  1305","MEAN_ANOMALY":"273.1999","CENTER_NAME":"EARTH","CLASSIFICATION_TYPE":"U","MEAN_MOTION":"15.70276889","GP_ID":"208474227","ELEMENT_SET_NO":"999","OBJECT_NAME":"STARLINK-4251","MEAN_MOTION_DDOT":"0.0000000000000","FILE":"3517796","LAUNCH_DATE":"2022-07-11","ECCENTRICITY":"0.00016320","SEMIMAJOR_AXIS":"6736.242","PERIOD":"91.704","COUNTRY_CODE":"US","NORAD_CAT_ID":"53083","OBJECT_TYPE":"PAYLOAD","REF_FRAME":"TEME","DECAY_DATE":null,"EPHEMERIS_TYPE":"0","TIME_SYSTEM":"UTC","MEAN_MOTION_DOT":"0.00000809","RCS_SIZE":null,"BSTAR":"0.00000776580000","RA_OF_ASC_NODE":"19.3070","MEAN_ELEMENT_THEORY":"SGP4","EPOCH":"2022-07-19T22:00:00.999936","PERIAPSIS":"357.008"},{"BSTAR":"0.00036979000000","RA_OF_ASC_NODE":"19.2967","MEAN_ELEMENT_THEORY":"SGP4","EPOCH":"2022-07-19T22:00:00.999936","PERIAPSIS":"357.347","MEAN_MOTION_DOT":"0.00045030","RCS_SIZE":null,"OBJECT_TYPE":"PAYLOAD","REF_FRAME":"TEME","DECAY_DATE":null,"EPHEMERIS_TYPE":"0","TIME_SYSTEM":"UTC","SEMIMAJOR_AXIS":"6736.070","PERIOD":"91.700","COUNTRY_CODE":"US","NORAD_CAT_ID":"53084","ECCENTRICITY":"0.00008720","MEAN_MOTION_DDOT":"0.0000000000000","FILE":"3517796","LAUNCH_DATE":"2022-07-11","TLE_LINE2":"2 53084  97.6568  19.2967 0000872 109.8783 207.2659 15.70337159  1306","CLASSIFICATION_TYPE":"U","CENTER_NAME":"EARTH","MEAN_ANOMALY":"207.2659","ELEMENT_SET_NO":"999","GP_ID":"208474637","MEAN_MOTION":"15.70337159","OBJECT_NAME":"STARLINK-4319","TLE_LINE1":"1 53084U 22077AT  22200.91667824  .00045030  00000-0  36979-3 0  9996","OBJECT_ID":"2022-077AT","SITE":"AFWTR","ARG_OF_PERICENTER":"109.8783","REV_AT_EPOCH":"130","APOAPSIS":"358.522","INCLINATION":"97.6568"},{"MEAN_MOTION_DOT":"-0.00409753","RCS_SIZE":null,"PERIAPSIS":"356.681","BSTAR":"-0.00351700000000","RA_OF_ASC_NODE":"19.2982","EPOCH":"2022-07-19T22:00:00.999936","MEAN_ELEMENT_THEORY":"SGP4","PERIOD":"91.691","SEMIMAJOR_AXIS":"6735.638","NORAD_CAT_ID":"53085","COUNTRY_CODE":"US","TIME_SYSTEM":"UTC","EPHEMERIS_TYPE":"0","OBJECT_TYPE":"PAYLOAD","DECAY_DATE":null,"REF_FRAME":"TEME","FILE":"3517796","LAUNCH_DATE":"2022-07-11","MEAN_MOTION_DDOT":"0.0000000000000","ECCENTRICITY":"0.00012200","ARG_OF_PERICENTER":"90.2620","TLE_LINE1":"1 53085U 22077AU  22200.91667824 -.00409753  00000-0 -35170-2 0  9996","SITE":"AFWTR","OBJECT_ID":"2022-077AU","APOAPSIS":"358.325","INCLINATION":"97.6577","REV_AT_EPOCH":"130","MEAN_MOTION":"15.70488083","GP_ID":"208473972","ELEMENT_SET_NO":"999","OBJECT_NAME":"STARLINK-4324","CLASSIFICATION_TYPE":"U","MEAN_ANOMALY":"228.8934","CENTER_NAME":"EARTH","TLE_LINE2":"2 53085  97.6577  19.2982 0001220  90.2620 228.8934 15.70488083  1303"},{"ECCENTRICITY":"0.00011090","LAUNCH_DATE":"2022-07-11","FILE":"3517796","MEAN_MOTION_DDOT":"0.0000000000000","OBJECT_NAME":"STARLINK-4318","GP_ID":"208474083","MEAN_MOTION":"15.70313736","ELEMENT_SET_NO":"999","TLE_LINE2":"2 53086  97.6571  19.2971 0001109  99.2406 219.1902 15.70313736  1303","MEAN_ANOMALY":"219.1902","CENTER_NAME":"EARTH","CLASSIFICATION_TYPE":"U","REV_AT_EPOCH":"130","APOAPSIS":"358.749","INCLINATION":"97.6571","TLE_LINE1":"1 53086U 22077AV  22200.91667824 -.00009834  00000-0 -80043-4 0  9994","OBJECT_ID":"2022-077AV","SITE":"AFWTR","ARG_OF_PERICENTER":"99.2406","PERIAPSIS":"357.255","MEAN_ELEMENT_THEORY":"SGP4","EPOCH":"2022-07-19T22:00:00.999936","BSTAR":"-0.00008004300000","RA_OF_ASC_NODE":"19.2971","RCS_SIZE":null,"MEAN_MOTION_DOT":"-0.00009834","EPHEMERIS_TYPE":"0","TIME_SYSTEM":"UTC","REF_FRAME":"TEME","DECAY_DATE":null,"OBJECT_TYPE":"PAYLOAD","COUNTRY_CODE":"US","NORAD_CAT_ID":"53086","SEMIMAJOR_AXIS":"6736.137","PERIOD":"91.701"},{"MEAN_MOTION_DDOT":"0.0000000000000","LAUNCH_DATE":"2022-07-11","FILE":"3517796","ECCENTRICITY":"0.00010240","APOAPSIS":"358.760","INCLINATION":"97.6591","REV_AT_EPOCH":"130","ARG_OF_PERICENTER":"94.9227","SITE":"AFWTR","TLE_LINE1":"1 53087U 22077AW  22200.91667824 -.00107432  00000-0 -89643-3 0  9992","OBJECT_ID":"2022-077AW","CENTER_NAME":"EARTH","MEAN_ANOMALY":"225.4734","CLASSIFICATION_TYPE":"U","TLE_LINE2":"2 53087  97.6591  19.2990 0001024  94.9227 225.4734 15.70289708  1300","OBJECT_NAME":"STARLINK-4329","GP_ID":"208473861","ELEMENT_SET_NO":"999","MEAN_MOTION":"15.70289708","MEAN_MOTION_DOT":"-0.00107432","RCS_SIZE":null,"EPOCH":"2022-07-19T22:00:00.999936","MEAN_ELEMENT_THEORY":"SGP4","RA_OF_ASC_NODE":"19.2990","BSTAR":"-0.00089643000000","PERIAPSIS":"357.381","NORAD_CAT_ID":"53087","COUNTRY_CODE":"US","PERIOD":"91.703","SEMIMAJOR_AXIS":"6736.205","DECAY_DATE":null,"REF_FRAME":"TEME","OBJECT_TYPE":"PAYLOAD","TIME_SYSTEM":"UTC","EPHEMERIS_TYPE":"0"},{"EPHEMERIS_TYPE":"0","TIME_SYSTEM":"UTC","OBJECT_TYPE":"PAYLOAD","REF_FRAME":"TEME","DECAY_DATE":null,"SEMIMAJOR_AXIS":"6736.096","PERIOD":"91.701","COUNTRY_CODE":"US","NORAD_CAT_ID":"53088","PERIAPSIS":"357.136","RA_OF_ASC_NODE":"19.2981","BSTAR":"-0.00148170000000","MEAN_ELEMENT_THEORY":"SGP4","EPOCH":"2022-07-19T22:00:00.999936","MEAN_MOTION_DOT":"-0.00176331","RCS_SIZE":null,"GP_ID":"208474560","MEAN_MOTION":"15.70327810","ELEMENT_SET_NO":"999","OBJECT_NAME":"STARLINK-4333","TLE_LINE2":"2 53088  97.6589  19.2981 0001225  94.1581 225.6483 15.70327810  1306","CENTER_NAME":"EARTH","MEAN_ANOMALY":"225.6483","CLASSIFICATION_TYPE":"U","SITE":"AFWTR","TLE_LINE1":"1 53088U 22077AX  22200.91667824 -.00176331  00000-0 -14817-2 0  9997","OBJECT_ID":"2022-077AX","ARG_OF_PERICENTER":"94.1581","REV_AT_EPOCH":"130","INCLINATION":"97.6589","APOAPSIS":"358.787","ECCENTRICITY":"0.00012250","FILE":"3517796","LAUNCH_DATE":"2022-07-11","MEAN_MOTION_DDOT":"0.0000000000000"}];
